[{"OBJECT_NAME":"STARLINK-2478","OBJECT_ID":"2021-027AV","EPOCH":"2026-03-09T15:58:54.796800","MEAN_MOTION":15.29082675,"ECCENTRICITY":0.00032054,"INCLINATION":53.1606,"RA_OF_ASC_NODE":168.0254,"ARG_OF_PERICENTER":139.463,"MEAN_ANOMALY":220.6609,"EPHEMERIS_TYPE":0,"CLASSIFICATION_TYPE":"U","NORAD_CAT_ID":48135,"ELEMENT_SET_NO":999,"REV_AT_EPOCH":27247,"BSTAR":-0.0038835427,"MEAN_MOTION_DOT":-0.00109876,"MEAN_MOTION_DDOT":0},{"OBJECT_NAME":"CZ-2C DEB","OBJECT_ID":"2011-030E","EPOCH":"2026-03-09T22:02:28.057920","MEAN_MOTION":15.23147202,"ECCENTRICITY":0.00216086,"INCLINATION":98.1958,"RA_OF_ASC_NODE":48.5667,"ARG_OF_PERICENTER":313.6999,"MEAN_ANOMALY":74.4133,"EPHEMERIS_TYPE":0,"CLASSIFICATION_TYPE":"U","NORAD_CAT_ID":37734,"ELEMENT_SET_NO":999,"REV_AT_EPOCH":78227,"BSTAR":0.0029824689,"MEAN_MOTION_DOT":0.00071429,"MEAN_MOTION_DDOT":0}]
